[{"OBJECT_NAME":"STARLINK-36649","OBJECT_ID":"2026-033S","EPOCH":"2026-03-18T06:00:02.000160","MEAN_MOTION":15.52680338,"ECCENTRICITY":8.868e-5,"INCLINATION":43.0003,"RA_OF_ASC_NODE":219.8446,"ARG_OF_PERICENTER":250.4075,"MEAN_ANOMALY":340.7249,"EPHEMERIS_TYPE":0,"CLASSIFICATION_TYPE":"U","NORAD_CAT_ID":67837,"ELEMENT_SET_NO":999,"REV_AT_EPOCH":604,"BSTAR":-0.046010138,"MEAN_MOTION_DOT":-0.02572663,"MEAN_MOTION_DDOT":0},{"OBJECT_NAME":"STARLINK-36654","OBJECT_ID":"2026-033T","EPOCH":"2026-03-18T06:00:02.000160","MEAN_MOTION":15.5047357,"ECCENTRICITY":0.00016273,"INCLINATION":43.0001,"RA_OF_ASC_NODE":219.9639,"ARG_OF_PERICENTER":251.3742,"MEAN_ANOMALY":290.9331,"EPHEMERIS_TYPE":0,"CLASSIFICATION_TYPE":"U","NORAD_CAT_ID":67838,"ELEMENT_SET_NO":999,"REV_AT_EPOCH":604,"BSTAR":0.0014369474,"MEAN_MOTION_DOT":0.00084555,"MEAN_MOTION_DDOT":0},{"OBJECT_NAME":"STARLINK-36652","OBJECT_ID":"2026-033U","EPOCH":"2026-03-18T06:00:02.000160","MEAN_MOTION":15.5052832,"ECCENTRICITY":0.00017364,"INCLINATION":43,"RA_OF_ASC_NODE":220.0679,"ARG_OF_PERICENTER":273.4965,"MEAN_ANOMALY":226.9254,"EPHEMERIS_TYPE":0,"CLASSIFICATION_TYPE":"U","NORAD_CAT_ID":67839,"ELEMENT_SET_NO":999,"REV_AT_EPOCH":604,"BSTAR":0.0012013023,"MEAN_MOTION_DOT":0.00070644,"MEAN_MOTION_DDOT":0},{"OBJECT_NAME":"STARLINK-36651","OBJECT_ID":"2026-033V","EPOCH":"2026-03-18T06:00:02.000160","MEAN_MOTION":15.50479837,"ECCENTRICITY":0.00024701,"INCLINATION":43.0002,"RA_OF_ASC_NODE":219.9539,"ARG_OF_PERICENTER":280.8493,"MEAN_ANOMALY":265.1636,"EPHEMERIS_TYPE":0,"CLASSIFICATION_TYPE":"U","NORAD_CAT_ID":67840,"ELEMENT_SET_NO":999,"REV_AT_EPOCH":604,"BSTAR":0.0013887161,"MEAN_MOTION_DOT":0.00081697,"MEAN_MOTION_DDOT":0},{"OBJECT_NAME":"STARLINK-36656","OBJECT_ID":"2026-033W","EPOCH":"2026-03-18T06:00:02.000160","MEAN_MOTION":15.50792525,"ECCENTRICITY":0.00018783,"INCLINATION":42.9999,"RA_OF_ASC_NODE":219.8702,"ARG_OF_PERICENTER":293.8669,"MEAN_ANOMALY":286.1184,"EPHEMERIS_TYPE":0,"CLASSIFICATION_TYPE":"U","NORAD_CAT_ID":67841,"ELEMENT_SET_NO":999,"REV_AT_EPOCH":604,"BSTAR":-0.0078433461,"MEAN_MOTION_DOT":-0.00438971,"MEAN_MOTION_DDOT":0},{"OBJECT_NAME":"STARLINK-36653","OBJECT_ID":"2026-033X","EPOCH":"2026-03-18T06:00:02.000160","MEAN_MOTION":15.50514655,"ECCENTRICITY":0.00017307,"INCLINATION":43.0001,"RA_OF_ASC_NODE":219.9264,"ARG_OF_PERICENTER":263.4677,"MEAN_ANOMALY":293.6396,"EPHEMERIS_TYPE":0,"CLASSIFICATION_TYPE":"U","NORAD_CAT_ID":67842,"ELEMENT_SET_NO":999,"REV_AT_EPOCH":604,"BSTAR":0.0013779904,"MEAN_MOTION_DOT":0.00081155,"MEAN_MOTION_DDOT":0},{"OBJECT_NAME":"STARLINK-36589","OBJECT_ID":"2026-033Y","EPOCH":"2026-03-18T06:00:02.000160","MEAN_MOTION":15.50848333,"ECCENTRICITY":0.00019199,"INCLINATION":43,"RA_OF_ASC_NODE":219.847,"ARG_OF_PERICENTER":275.9464,"MEAN_ANOMALY":313.6325,"EPHEMERIS_TYPE":0,"CLASSIFICATION_TYPE":"U","NORAD_CAT_ID":67843,"ELEMENT_SET_NO":999,"REV_AT_EPOCH":604,"BSTAR":-0.0080743806,"MEAN_MOTION_DOT":-0.00452055,"MEAN_MOTION_DDOT":0},{"OBJECT_NAME":"STARLINK-36598","OBJECT_ID":"2026-033Z","EPOCH":"2026-03-18T06:00:02.000160","MEAN_MOTION":15.50540013,"ECCENTRICITY":0.00018919,"INCLINATION":43.0001,"RA_OF_ASC_NODE":220.0506,"ARG_OF_PERICENTER":301.9025,"MEAN_ANOMALY":204.8215,"EPHEMERIS_TYPE":0,"CLASSIFICATION_TYPE":"U","NORAD_CAT_ID":67844,"ELEMENT_SET_NO":999,"REV_AT_EPOCH":604,"BSTAR":0.0011079112,"MEAN_MOTION_DOT":0.00065107,"MEAN_MOTION_DDOT":0},{"OBJECT_NAME":"STARLINK-36606","OBJECT_ID":"2026-033AA","EPOCH":"2026-03-18T06:00:02.000160","MEAN_MOTION":15.54742265,"ECCENTRICITY":0.00018508,"INCLINATION":43.0001,"RA_OF_ASC_NODE":219.6101,"ARG_OF_PERICENTER":259.8882,"MEAN_ANOMALY":65.4727,"EPHEMERIS_TYPE":0,"CLASSIFICATION_TYPE":"U","NORAD_CAT_ID":67845,"ELEMENT_SET_NO":999,"REV_AT_EPOCH":604,"BSTAR":-0.030958324,"MEAN_MOTION_DOT":-0.01867177,"MEAN_MOTION_DDOT":0},{"OBJECT_NAME":"STARLINK-36658","OBJECT_ID":"2026-033AB","EPOCH":"2026-03-18T06:00:02.000160","MEAN_MOTION":15.50533194,"ECCENTRICITY":0.00022666,"INCLINATION":42.9999,"RA_OF_ASC_NODE":219.9978,"ARG_OF_PERICENTER":280.9984,"MEAN_ANOMALY":246.845,"EPHEMERIS_TYPE":0,"CLASSIFICATION_TYPE":"U","NORAD_CAT_ID":67846,"ELEMENT_SET_NO":999,"REV_AT_EPOCH":604,"BSTAR":0.0011623395,"MEAN_MOTION_DOT":0.00068336,"MEAN_MOTION_DDOT":0},{"OBJECT_NAME":"STARLINK-36618","OBJECT_ID":"2026-033AC","EPOCH":"2026-03-18T06:00:02.000160","MEAN_MOTION":15.87994043,"ECCENTRICITY":0.00016717,"INCLINATION":42.9756,"RA_OF_ASC_NODE":215.8695,"ARG_OF_PERICENTER":280.2361,"MEAN_ANOMALY":82.6441,"EPHEMERIS_TYPE":0,"CLASSIFICATION_TYPE":"U","NORAD_CAT_ID":67847,"ELEMENT_SET_NO":999,"REV_AT_EPOCH":604,"BSTAR":-0.0025284824,"MEAN_MOTION_DOT":-0.00660763,"MEAN_MOTION_DDOT":0},{"OBJECT_NAME":"STARLINK-36660","OBJECT_ID":"2026-033AD","EPOCH":"2026-03-18T06:00:02.000160","MEAN_MOTION":15.50542603,"ECCENTRICITY":0.00016172,"INCLINATION":43.0001,"RA_OF_ASC_NODE":220.0833,"ARG_OF_PERICENTER":254.9039,"MEAN_ANOMALY":237.9431,"EPHEMERIS_TYPE":0,"CLASSIFICATION_TYPE":"U","NORAD_CAT_ID":67848,"ELEMENT_SET_NO":999,"REV_AT_EPOCH":604,"BSTAR":0.0011316815,"MEAN_MOTION_DOT":0.00066529,"MEAN_MOTION_DDOT":0},{"OBJECT_NAME":"STARLINK-36602","OBJECT_ID":"2026-033AE","EPOCH":"2026-03-18T06:00:02.000160","MEAN_MOTION":15.50520181,"ECCENTRICITY":0.00021008,"INCLINATION":42.9999,"RA_OF_ASC_NODE":220.034,"ARG_OF_PERICENTER":274.5375,"MEAN_ANOMALY":238.3179,"EPHEMERIS_TYPE":0,"CLASSIFICATION_TYPE":"U","NORAD_CAT_ID":67849,"ELEMENT_SET_NO":999,"REV_AT_EPOCH":604,"BSTAR":0.0011751655,"MEAN_MOTION_DOT":0.00069067,"MEAN_MOTION_DDOT":0},{"OBJECT_NAME":"STARLINK-36840","OBJECT_ID":"2026-034A","EPOCH":"2026-03-17T15:13:02.827200","MEAN_MOTION":15.81106853,"ECCENTRICITY":0.00017738,"INCLINATION":53.1589,"RA_OF_ASC_NODE":171.5435,"ARG_OF_PERICENTER":223.916,"MEAN_ANOMALY":136.1723,"EPHEMERIS_TYPE":0,"CLASSIFICATION_TYPE":"U","NORAD_CAT_ID":67850,"ELEMENT_SET_NO":999,"REV_AT_EPOCH":519,"BSTAR":0.0020602309,"MEAN_MOTION_DOT":0.00431528,"MEAN_MOTION_DDOT":0},{"OBJECT_NAME":"STARLINK-36348","OBJECT_ID":"2026-034B","EPOCH":"2026-03-17T18:14:02.898528","MEAN_MOTION":15.80893524,"ECCENTRICITY":0.00010687,"INCLINATION":53.1587,"RA_OF_ASC_NODE":170.9037,"ARG_OF_PERICENTER":87.7609,"MEAN_ANOMALY":272.3536,"EPHEMERIS_TYPE":0,"CLASSIFICATION_TYPE":"U","NORAD_CAT_ID":67851,"ELEMENT_SET_NO":999,"REV_AT_EPOCH":521,"BSTAR":0.0013162336,"MEAN_MOTION_DOT":0.00267546,"MEAN_MOTION_DDOT":0},{"OBJECT_NAME":"STARLINK-36276","OBJECT_ID":"2026-034C","EPOCH":"2026-03-17T00:00:32.361984","MEAN_MOTION":15.80955802,"ECCENTRICITY":0.00019828,"INCLINATION":53.1589,"RA_OF_ASC_NODE":174.7015,"ARG_OF_PERICENTER":80.0427,"MEAN_ANOMALY":280.0819,"EPHEMERIS_TYPE":0,"CLASSIFICATION_TYPE":"U","NORAD_CAT_ID":67852,"ELEMENT_SET_NO":999,"REV_AT_EPOCH":509,"BSTAR":0.0013598024,"MEAN_MOTION_DOT":0.00277545,"MEAN_MOTION_DDOT":0}]
